CCSDS_OMM_VERS = 2.0
CREATION_DATE  = 
ORIGINATOR     = 

OBJECT_NAME    = STARLINK-36178
OBJECT_ID      = 2025-293Y
CENTER_NAME    = EARTH
REF_FRAME      = TEME
TIME_SYSTEM    = UTC
MEAN_ELEMENT_THEORY = SGP/SGP4

EPOCH          = 2025-12-26T18:00:02.998944
MEAN_MOTION    = 15.71837768
ECCENTRICITY   = .0003482
INCLINATION    = 69.9961
RA_OF_ASC_NODE = 283.2823
ARG_OF_PERICENTER = 260.2978
MEAN_ANOMALY   = 314.1787

EPHEMERIS_TYPE = 0
CLASSIFICATION_TYPE = U
NORAD_CAT_ID   = 67025
ELEMENT_SET_NO = 999
REV_AT_EPOCH   = 247
BSTAR          = -.14005E-1
MEAN_MOTION_DOT = -.1621792E-1
MEAN_MOTION_DDOT = 0

CCSDS_OMM_VERS = 2.0
CREATION_DATE  = 
ORIGINATOR     = 

OBJECT_NAME    = STARLINK-36176
OBJECT_ID      = 2025-293Z
CENTER_NAME    = EARTH
REF_FRAME      = TEME
TIME_SYSTEM    = UTC
MEAN_ELEMENT_THEORY = SGP/SGP4

EPOCH          = 2025-12-26T18:00:02.998944
MEAN_MOTION    = 15.71794583
ECCENTRICITY   = .0003378
INCLINATION    = 69.9960
RA_OF_ASC_NODE = 283.2767
ARG_OF_PERICENTER = 262.4596
MEAN_ANOMALY   = 316.6350

EPHEMERIS_TYPE = 0
CLASSIFICATION_TYPE = U
NORAD_CAT_ID   = 67026
ELEMENT_SET_NO = 999
REV_AT_EPOCH   = 247
BSTAR          = -.13994E-1
MEAN_MOTION_DOT = -.1618E-1
MEAN_MOTION_DDOT = 0

CCSDS_OMM_VERS = 2.0
CREATION_DATE  = 
ORIGINATOR     = 

OBJECT_NAME    = STARLINK-36171
OBJECT_ID      = 2025-293AA
CENTER_NAME    = EARTH
REF_FRAME      = TEME
TIME_SYSTEM    = UTC
MEAN_ELEMENT_THEORY = SGP/SGP4

EPOCH          = 2025-12-26T18:00:02.998944
MEAN_MOTION    = 15.71806292
ECCENTRICITY   = .000343
INCLINATION    = 69.9956
RA_OF_ASC_NODE = 283.2792
ARG_OF_PERICENTER = 259.8374
MEAN_ANOMALY   = 317.1503

EPHEMERIS_TYPE = 0
CLASSIFICATION_TYPE = U
NORAD_CAT_ID   = 67027
ELEMENT_SET_NO = 999
REV_AT_EPOCH   = 247
BSTAR          = -.14014E-1
MEAN_MOTION_DOT = -.1620754E-1
MEAN_MOTION_DDOT = 0

CCSDS_OMM_VERS = 2.0
CREATION_DATE  = 
ORIGINATOR     = 

OBJECT_NAME    = STARLINK-36132
OBJECT_ID      = 2025-293AB
CENTER_NAME    = EARTH
REF_FRAME      = TEME
TIME_SYSTEM    = UTC
MEAN_ELEMENT_THEORY = SGP/SGP4

EPOCH          = 2025-12-26T18:00:02.998944
MEAN_MOTION    = 15.71757310
ECCENTRICITY   = .0003602
INCLINATION    = 69.9959
RA_OF_ASC_NODE = 283.2713
ARG_OF_PERICENTER = 262.3276
MEAN_ANOMALY   = 321.4049

EPHEMERIS_TYPE = 0
CLASSIFICATION_TYPE = U
NORAD_CAT_ID   = 67028
ELEMENT_SET_NO = 999
REV_AT_EPOCH   = 247
BSTAR          = -.14077E-1
MEAN_MOTION_DOT = -.1624393E-1
MEAN_MOTION_DDOT = 0

CCSDS_OMM_VERS = 2.0
CREATION_DATE  = 
ORIGINATOR     = 

OBJECT_NAME    = STARLINK-36190
OBJECT_ID      = 2025-293AC
CENTER_NAME    = EARTH
REF_FRAME      = TEME
TIME_SYSTEM    = UTC
MEAN_ELEMENT_THEORY = SGP/SGP4

EPOCH          = 2025-12-26T18:00:02.998944
MEAN_MOTION    = 15.71785235
ECCENTRICITY   = .0003489
INCLINATION    = 69.9960
RA_OF_ASC_NODE = 283.2747
ARG_OF_PERICENTER = 260.5874
MEAN_ANOMALY   = 320.6770

EPHEMERIS_TYPE = 0
CLASSIFICATION_TYPE = U
NORAD_CAT_ID   = 67029
ELEMENT_SET_NO = 999
REV_AT_EPOCH   = 247
BSTAR          = -.14051E-1
MEAN_MOTION_DOT = -.1623348E-1
MEAN_MOTION_DDOT = 0

CCSDS_OMM_VERS = 2.0
CREATION_DATE  = 
ORIGINATOR     = 

OBJECT_NAME    = STARLINK-36138
OBJECT_ID      = 2025-294A
CENTER_NAME    = EARTH
REF_FRAME      = TEME
TIME_SYSTEM    = UTC
MEAN_ELEMENT_THEORY = SGP/SGP4

EPOCH          = 2025-12-26T18:00:02.998944
MEAN_MOTION    = 15.64754281
ECCENTRICITY   = .0001407
INCLINATION    = 42.9994
RA_OF_ASC_NODE = 96.7051
ARG_OF_PERICENTER = 291.6712
MEAN_ANOMALY   = 181.5170

EPHEMERIS_TYPE = 0
CLASSIFICATION_TYPE = U
NORAD_CAT_ID   = 67030
ELEMENT_SET_NO = 999
REV_AT_EPOCH   = 236
BSTAR          = -.21301E-1
MEAN_MOTION_DOT = -.1888538E-1
MEAN_MOTION_DDOT = 0

CCSDS_OMM_VERS = 2.0
CREATION_DATE  = 
ORIGINATOR     = 

OBJECT_NAME    = STARLINK-36150
OBJECT_ID      = 2025-294B
CENTER_NAME    = EARTH
REF_FRAME      = TEME
TIME_SYSTEM    = UTC
MEAN_ELEMENT_THEORY = SGP/SGP4

EPOCH          = 2025-12-26T18:00:02.998944
MEAN_MOTION    = 15.64759722
ECCENTRICITY   = .0001438
INCLINATION    = 42.9994
RA_OF_ASC_NODE = 96.7002
ARG_OF_PERICENTER = 291.3189
MEAN_ANOMALY   = 183.7178

EPHEMERIS_TYPE = 0
CLASSIFICATION_TYPE = U
NORAD_CAT_ID   = 67031
ELEMENT_SET_NO = 999
REV_AT_EPOCH   = 255
BSTAR          = -.21293E-1
MEAN_MOTION_DOT = -.1888291E-1
MEAN_MOTION_DDOT = 0

CCSDS_OMM_VERS = 2.0
CREATION_DATE  = 
ORIGINATOR     = 

OBJECT_NAME    = STARLINK-36131
OBJECT_ID      = 2025-294C
CENTER_NAME    = EARTH
REF_FRAME      = TEME
TIME_SYSTEM    = UTC
MEAN_ELEMENT_THEORY = SGP/SGP4

EPOCH          = 2025-12-26T18:00:02.998944
MEAN_MOTION    = 15.64746606
ECCENTRICITY   = .0001338
INCLINATION    = 42.9993
RA_OF_ASC_NODE = 96.6901
ARG_OF_PERICENTER = 288.6713
MEAN_ANOMALY   = 190.3756

EPHEMERIS_TYPE = 0
CLASSIFICATION_TYPE = U
NORAD_CAT_ID   = 67032
ELEMENT_SET_NO = 999
REV_AT_EPOCH   = 236
BSTAR          = -.21338E-1
MEAN_MOTION_DOT = -.1890875E-1
MEAN_MOTION_DDOT = 0

CCSDS_OMM_VERS = 2.0
CREATION_DATE  = 
ORIGINATOR     = 

OBJECT_NAME    = STARLINK-36137
OBJECT_ID      = 2025-294D
CENTER_NAME    = EARTH
REF_FRAME      = TEME
TIME_SYSTEM    = UTC
MEAN_ELEMENT_THEORY = SGP/SGP4

EPOCH          = 2025-12-26T18:00:02.998944
MEAN_MOTION    = 15.64751463
ECCENTRICITY   = .0001368
INCLINATION    = 42.9993
RA_OF_ASC_NODE = 96.6955
ARG_OF_PERICENTER = 292.4170
MEAN_ANOMALY   = 184.6173

EPHEMERIS_TYPE = 0
CLASSIFICATION_TYPE = U
NORAD_CAT_ID   = 67033
ELEMENT_SET_NO = 999
REV_AT_EPOCH   = 236
BSTAR          = -.2128E-1
MEAN_MOTION_DOT = -.188667E-1
MEAN_MOTION_DDOT = 0

CCSDS_OMM_VERS = 2.0
CREATION_DATE  = 
ORIGINATOR     = 

OBJECT_NAME    = STARLINK-36140
OBJECT_ID      = 2025-294E
CENTER_NAME    = EARTH
REF_FRAME      = TEME
TIME_SYSTEM    = UTC
MEAN_ELEMENT_THEORY = SGP/SGP4

EPOCH          = 2025-12-26T14:00:04.000032
MEAN_MOTION    = 15.65455074
ECCENTRICITY   = .00012463
INCLINATION    = 42.9993
RA_OF_ASC_NODE = 97.6818
ARG_OF_PERICENTER = 276.2734
MEAN_ANOMALY   = 344.7204

EPHEMERIS_TYPE = 0
CLASSIFICATION_TYPE = U
NORAD_CAT_ID   = 67034
ELEMENT_SET_NO = 999
REV_AT_EPOCH   = 233
BSTAR          = -.2132614E-1
MEAN_MOTION_DOT = -.1938291E-1
MEAN_MOTION_DDOT = 0

CCSDS_OMM_VERS = 2.0
CREATION_DATE  = 
ORIGINATOR     = 

OBJECT_NAME    = STARLINK-36085
OBJECT_ID      = 2025-294F
CENTER_NAME    = EARTH
REF_FRAME      = TEME
TIME_SYSTEM    = UTC
MEAN_ELEMENT_THEORY = SGP/SGP4

EPOCH          = 2025-12-26T18:00:02.998944
MEAN_MOTION    = 15.64708442
ECCENTRICITY   = .0001291
INCLINATION    = 42.9990
RA_OF_ASC_NODE = 96.6745
ARG_OF_PERICENTER = 289.5405
MEAN_ANOMALY   = 195.7663

EPHEMERIS_TYPE = 0
CLASSIFICATION_TYPE = U
NORAD_CAT_ID   = 67035
ELEMENT_SET_NO = 999
REV_AT_EPOCH   = 236
BSTAR          = -.21449E-1
MEAN_MOTION_DOT = -.189694E-1
MEAN_MOTION_DDOT = 0

CCSDS_OMM_VERS = 2.0
CREATION_DATE  = 
ORIGINATOR     = 

OBJECT_NAME    = STARLINK-36125
OBJECT_ID      = 2025-294G
CENTER_NAME    = EARTH
REF_FRAME      = TEME
TIME_SYSTEM    = UTC
MEAN_ELEMENT_THEORY = SGP/SGP4

EPOCH          = 2025-12-26T18:00:02.998944
MEAN_MOTION    = 15.64717017
ECCENTRICITY   = .0001371
INCLINATION    = 42.9990
RA_OF_ASC_NODE = 96.6799
ARG_OF_PERICENTER = 290.3612
MEAN_ANOMALY   = 192.8548

EPHEMERIS_TYPE = 0
CLASSIFICATION_TYPE = U
NORAD_CAT_ID   = 67036
ELEMENT_SET_NO = 999
REV_AT_EPOCH   = 255
BSTAR          = -.2133E-1
MEAN_MOTION_DOT = -.1888312E-1
MEAN_MOTION_DDOT = 0

