STARLINK-36178          
1 67025U 25293Y   25360.75003471 -.01621792  00000+0 -14005-1 0  9994
2 67025  69.9961 283.2823 0003482 260.2978 314.1787 15.71837768  2478
STARLINK-36176          
1 67026U 25293Z   25360.75003471 -.01618000  00000+0 -13994-1 0  9999
2 67026  69.9960 283.2767 0003378 262.4596 316.6350 15.71794583  2479
STARLINK-36171          
1 67027U 25293AA  25360.75003471 -.01620754  00000+0 -14014-1 0  9993
2 67027  69.9956 283.2792 0003430 259.8374 317.1503 15.71806292  2473
STARLINK-36132          
1 67028U 25293AB  25360.75003471 -.01624393  00000+0 -14077-1 0  9996
2 67028  69.9959 283.2713 0003602 262.3276 321.4049 15.71757310  2470
STARLINK-36190          
1 67029U 25293AC  25360.75003471 -.01623348  00000+0 -14051-1 0  9998
2 67029  69.9960 283.2747 0003489 260.5874 320.6770 15.71785235  2476
STARLINK-36138          
1 67030U 25294A   25360.75003471 -.01888538  00000+0 -21301-1 0  9991
2 67030  42.9994  96.7051 0001407 291.6712 181.5170 15.64754281  2360
STARLINK-36150          
1 67031U 25294B   25360.75003471 -.01888291  00000+0 -21293-1 0  9998
2 67031  42.9994  96.7002 0001438 291.3189 183.7178 15.64759722  2554
STARLINK-36131          
1 67032U 25294C   25360.75003471 -.01890875  00000+0 -21338-1 0  9990
2 67032  42.9993  96.6901 0001338 288.6713 190.3756 15.64746606  2364
STARLINK-36137          
1 67033U 25294D   25360.75003471 -.01886670  00000+0 -21280-1 0  9995
2 67033  42.9993  96.6955 0001368 292.4170 184.6173 15.64751463  2363
STARLINK-36140          
1 67034U 25294E   25360.58337963 -.01938291  00000+0 -21326-1 0  9991
2 67034  42.9993  97.6818 0001246 276.2734 344.7204 15.65455074  2335
STARLINK-36085          
1 67035U 25294F   25360.75003471 -.01896940  00000+0 -21449-1 0  9995
2 67035  42.9990  96.6745 0001291 289.5405 195.7663 15.64708442  2368
STARLINK-36125          
1 67036U 25294G   25360.75003471 -.01888312  00000+0 -21330-1 0  9999
2 67036  42.9990  96.6799 0001371 290.3612 192.8548 15.64717017  2556
